{
  "norad_id": 26107,
  "name": "ASIASTAR",
  "history": [
    {
      "epoch": "2026-03-28T20:25:03.191232Z",
      "apogee_km": 35806.12530896635,
      "perigee_km": 35765.637731822324,
      "latitude_deg": 0.24454407174840462,
      "longitude_deg": 104.99035072198636,
      "height_km": 35799.59241908466,
      "semi_major_axis_km": 42164.01852039434,
      "eccentricity": 0.00048012,
      "inclination_deg": 8.9454,
      "raan_deg": 58.9996,
      "arg_perigee_deg": 313.0017,
      "mean_anomaly_deg": 225.5178,
      "mean_motion_rev_day": 1.0027433
    }
  ]
}